<?xml version="1.0" encoding="UTF-8"?>
<ndm xmlns:xsi="http://www.w3.org/2001/XMLSchema-instance" xsi:noNamespaceSchemaLocation="https://sanaregistry.org/r/ndmxml_unqualified/ndmxml-2.0.0-master-2.0.xsd">
<omm id="CCSDS_OMM_VERS" version="2.0">
<header><CREATION_DATE/><ORIGINATOR/></header><body><segment><metadata><OBJECT_NAME>QIANFAN-10</OBJECT_NAME><OBJECT_ID>2024-140K</OBJECT_ID><CENTER_NAME>EARTH</CENTER_NAME><REF_FRAME>TEME</REF_FRAME><TIME_SYSTEM>UTC</TIME_SYSTEM><MEAN_ELEMENT_THEORY>SGP4</MEAN_ELEMENT_THEORY></metadata><data><meanElements><EPOCH>2025-11-17T19:16:16.650336</EPOCH><MEAN_MOTION>13.50978026</MEAN_MOTION><ECCENTRICITY>.0012821</ECCENTRICITY><INCLINATION>88.9748</INCLINATION><RA_OF_ASC_NODE>301.2646</RA_OF_ASC_NODE><ARG_OF_PERICENTER>245.0167</ARG_OF_PERICENTER><MEAN_ANOMALY>114.9652</MEAN_ANOMALY></meanElements><tleParameters><EPHEMERIS_TYPE>0</EPHEMERIS_TYPE><CLASSIFICATION_TYPE>U</CLASSIFICATION_TYPE><NORAD_CAT_ID>60388</NORAD_CAT_ID><ELEMENT_SET_NO>999</ELEMENT_SET_NO><REV_AT_EPOCH>6409</REV_AT_EPOCH><BSTAR>.72396E-4</BSTAR><MEAN_MOTION_DOT>.59E-6</MEAN_MOTION_DOT><MEAN_MOTION_DDOT>0</MEAN_MOTION_DDOT></tleParameters></data></segment></body></omm>
<omm id="CCSDS_OMM_VERS" version="2.0">
<header><CREATION_DATE/><ORIGINATOR/></header><body><segment><metadata><OBJECT_NAME>QIANFAN-11</OBJECT_NAME><OBJECT_ID>2024-140L</OBJECT_ID><CENTER_NAME>EARTH</CENTER_NAME><REF_FRAME>TEME</REF_FRAME><TIME_SYSTEM>UTC</TIME_SYSTEM><MEAN_ELEMENT_THEORY>SGP4</MEAN_ELEMENT_THEORY></metadata><data><meanElements><EPOCH>2025-11-17T18:22:56.542080</EPOCH><MEAN_MOTION>13.50974213</MEAN_MOTION><ECCENTRICITY>.001234</ECCENTRICITY><INCLINATION>88.9674</INCLINATION><RA_OF_ASC_NODE>301.8745</RA_OF_ASC_NODE><ARG_OF_PERICENTER>270.9020</ARG_OF_PERICENTER><MEAN_ANOMALY>89.0717</MEAN_ANOMALY></meanElements><tleParameters><EPHEMERIS_TYPE>0</EPHEMERIS_TYPE><CLASSIFICATION_TYPE>U</CLASSIFICATION_TYPE><NORAD_CAT_ID>60389</NORAD_CAT_ID><ELEMENT_SET_NO>999</ELEMENT_SET_NO><REV_AT_EPOCH>6374</REV_AT_EPOCH><BSTAR>.85601E-4</BSTAR><MEAN_MOTION_DOT>.67E-6</MEAN_MOTION_DOT><MEAN_MOTION_DDOT>0</MEAN_MOTION_DDOT></tleParameters></data></segment></body></omm>
<omm id="CCSDS_OMM_VERS" version="2.0">
<header><CREATION_DATE/><ORIGINATOR/></header><body><segment><metadata><OBJECT_NAME>QIANFAN-12</OBJECT_NAME><OBJECT_ID>2024-140M</OBJECT_ID><CENTER_NAME>EARTH</CENTER_NAME><REF_FRAME>TEME</REF_FRAME><TIME_SYSTEM>UTC</TIME_SYSTEM><MEAN_ELEMENT_THEORY>SGP4</MEAN_ELEMENT_THEORY></metadata><data><meanElements><EPOCH>2025-11-17T18:52:28.812576</EPOCH><MEAN_MOTION>13.50974823</MEAN_MOTION><ECCENTRICITY>.001123</ECCENTRICITY><INCLINATION>88.9717</INCLINATION><RA_OF_ASC_NODE>301.9049</RA_OF_ASC_NODE><ARG_OF_PERICENTER>280.5999</ARG_OF_PERICENTER><MEAN_ANOMALY>79.3887</MEAN_ANOMALY></meanElements><tleParameters><EPHEMERIS_TYPE>0</EPHEMERIS_TYPE><CLASSIFICATION_TYPE>U</CLASSIFICATION_TYPE><NORAD_CAT_ID>60390</NORAD_CAT_ID><ELEMENT_SET_NO>999</ELEMENT_SET_NO><REV_AT_EPOCH>6387</REV_AT_EPOCH><BSTAR>.96386E-4</BSTAR><MEAN_MOTION_DOT>.74E-6</MEAN_MOTION_DOT><MEAN_MOTION_DDOT>0</MEAN_MOTION_DDOT></tleParameters></data></segment></body></omm>
<omm id="CCSDS_OMM_VERS" version="2.0">
<header><CREATION_DATE/><ORIGINATOR/></header><body><segment><metadata><OBJECT_NAME>QIANFAN-13</OBJECT_NAME><OBJECT_ID>2024-140N</OBJECT_ID><CENTER_NAME>EARTH</CENTER_NAME><REF_FRAME>TEME</REF_FRAME><TIME_SYSTEM>UTC</TIME_SYSTEM><MEAN_ELEMENT_THEORY>SGP4</MEAN_ELEMENT_THEORY></metadata><data><meanElements><EPOCH>2025-11-17T18:11:01.136256</EPOCH><MEAN_MOTION>13.50975257</MEAN_MOTION><ECCENTRICITY>.001108</ECCENTRICITY><INCLINATION>88.9729</INCLINATION><RA_OF_ASC_NODE>302.0047</RA_OF_ASC_NODE><ARG_OF_PERICENTER>283.8591</ARG_OF_PERICENTER><MEAN_ANOMALY>76.1327</MEAN_ANOMALY></meanElements><tleParameters><EPHEMERIS_TYPE>0</EPHEMERIS_TYPE><CLASSIFICATION_TYPE>U</CLASSIFICATION_TYPE><NORAD_CAT_ID>60391</NORAD_CAT_ID><ELEMENT_SET_NO>999</ELEMENT_SET_NO><REV_AT_EPOCH>6389</REV_AT_EPOCH><BSTAR>.1086E-3</BSTAR><MEAN_MOTION_DOT>.82E-6</MEAN_MOTION_DOT><MEAN_MOTION_DDOT>0</MEAN_MOTION_DDOT></tleParameters></data></segment></body></omm>
<omm id="CCSDS_OMM_VERS" version="2.0">
<header><CREATION_DATE/><ORIGINATOR/></header><body><segment><metadata><OBJECT_NAME>QIANFAN-14</OBJECT_NAME><OBJECT_ID>2024-140P</OBJECT_ID><CENTER_NAME>EARTH</CENTER_NAME><REF_FRAME>TEME</REF_FRAME><TIME_SYSTEM>UTC</TIME_SYSTEM><MEAN_ELEMENT_THEORY>SGP4</MEAN_ELEMENT_THEORY></metadata><data><meanElements><EPOCH>2025-11-17T18:46:25.192128</EPOCH><MEAN_MOTION>13.50975025</MEAN_MOTION><ECCENTRICITY>.0014759</ECCENTRICITY><INCLINATION>88.9708</INCLINATION><RA_OF_ASC_NODE>301.9051</RA_OF_ASC_NODE><ARG_OF_PERICENTER>282.8946</ARG_OF_PERICENTER><MEAN_ANOMALY>77.0556</MEAN_ANOMALY></meanElements><tleParameters><EPHEMERIS_TYPE>0</EPHEMERIS_TYPE><CLASSIFICATION_TYPE>U</CLASSIFICATION_TYPE><NORAD_CAT_ID>60392</NORAD_CAT_ID><ELEMENT_SET_NO>999</ELEMENT_SET_NO><REV_AT_EPOCH>6390</REV_AT_EPOCH><BSTAR>.70796E-4</BSTAR><MEAN_MOTION_DOT>.58E-6</MEAN_MOTION_DOT><MEAN_MOTION_DDOT>0</MEAN_MOTION_DDOT></tleParameters></data></segment></body></omm>
<omm id="CCSDS_OMM_VERS" version="2.0">
<header><CREATION_DATE/><ORIGINATOR/></header><body><segment><metadata><OBJECT_NAME>QIANFAN-15</OBJECT_NAME><OBJECT_ID>2024-140Q</OBJECT_ID><CENTER_NAME>EARTH</CENTER_NAME><REF_FRAME>TEME</REF_FRAME><TIME_SYSTEM>UTC</TIME_SYSTEM><MEAN_ELEMENT_THEORY>SGP4</MEAN_ELEMENT_THEORY></metadata><data><meanElements><EPOCH>2025-11-17T20:44:58.308000</EPOCH><MEAN_MOTION>13.50973643</MEAN_MOTION><ECCENTRICITY>.0010449</ECCENTRICITY><INCLINATION>88.9732</INCLINATION><RA_OF_ASC_NODE>301.8471</RA_OF_ASC_NODE><ARG_OF_PERICENTER>267.2632</ARG_OF_PERICENTER><MEAN_ANOMALY>92.7323</MEAN_ANOMALY></meanElements><tleParameters><EPHEMERIS_TYPE>0</EPHEMERIS_TYPE><CLASSIFICATION_TYPE>U</CLASSIFICATION_TYPE><NORAD_CAT_ID>60393</NORAD_CAT_ID><ELEMENT_SET_NO>999</ELEMENT_SET_NO><REV_AT_EPOCH>6390</REV_AT_EPOCH><BSTAR>.10368E-3</BSTAR><MEAN_MOTION_DOT>.79E-6</MEAN_MOTION_DOT><MEAN_MOTION_DDOT>0</MEAN_MOTION_DDOT></tleParameters></data></segment></body></omm>
<omm id="CCSDS_OMM_VERS" version="2.0">
<header><CREATION_DATE/><ORIGINATOR/></header><body><segment><metadata><OBJECT_NAME>QIANFAN-16</OBJECT_NAME><OBJECT_ID>2024-140R</OBJECT_ID><CENTER_NAME>EARTH</CENTER_NAME><REF_FRAME>TEME</REF_FRAME><TIME_SYSTEM>UTC</TIME_SYSTEM><MEAN_ELEMENT_THEORY>SGP4</MEAN_ELEMENT_THEORY></metadata><data><meanElements><EPOCH>2025-11-17T18:40:45.696288</EPOCH><MEAN_MOTION>13.50973970</MEAN_MOTION><ECCENTRICITY>.001275</ECCENTRICITY><INCLINATION>88.9735</INCLINATION><RA_OF_ASC_NODE>301.9754</RA_OF_ASC_NODE><ARG_OF_PERICENTER>287.7774</ARG_OF_PERICENTER><MEAN_ANOMALY>72.1986</MEAN_ANOMALY></meanElements><tleParameters><EPHEMERIS_TYPE>0</EPHEMERIS_TYPE><CLASSIFICATION_TYPE>U</CLASSIFICATION_TYPE><NORAD_CAT_ID>60394</NORAD_CAT_ID><ELEMENT_SET_NO>999</ELEMENT_SET_NO><REV_AT_EPOCH>6380</REV_AT_EPOCH><BSTAR>.73845E-4</BSTAR><MEAN_MOTION_DOT>.6E-6</MEAN_MOTION_DOT><MEAN_MOTION_DDOT>0</MEAN_MOTION_DDOT></tleParameters></data></segment></body></omm>
<omm id="CCSDS_OMM_VERS" version="2.0">
<header><CREATION_DATE/><ORIGINATOR/></header><body><segment><metadata><OBJECT_NAME>QIANFAN-17</OBJECT_NAME><OBJECT_ID>2024-140S</OBJECT_ID><CENTER_NAME>EARTH</CENTER_NAME><REF_FRAME>TEME</REF_FRAME><TIME_SYSTEM>UTC</TIME_SYSTEM><MEAN_ELEMENT_THEORY>SGP4</MEAN_ELEMENT_THEORY></metadata><data><meanElements><EPOCH>2025-11-17T18:34:38.763264</EPOCH><MEAN_MOTION>13.50972786</MEAN_MOTION><ECCENTRICITY>.0013066</ECCENTRICITY><INCLINATION>88.9746</INCLINATION><RA_OF_ASC_NODE>302.0188</RA_OF_ASC_NODE><ARG_OF_PERICENTER>280.4520</ARG_OF_PERICENTER><MEAN_ANOMALY>79.5159</MEAN_ANOMALY></meanElements><tleParameters><EPHEMERIS_TYPE>0</EPHEMERIS_TYPE><CLASSIFICATION_TYPE>U</CLASSIFICATION_TYPE><NORAD_CAT_ID>60395</NORAD_CAT_ID><ELEMENT_SET_NO>999</ELEMENT_SET_NO><REV_AT_EPOCH>6476</REV_AT_EPOCH><BSTAR>.72056E-4</BSTAR><MEAN_MOTION_DOT>.58E-6</MEAN_MOTION_DOT><MEAN_MOTION_DDOT>0</MEAN_MOTION_DDOT></tleParameters></data></segment></body></omm>
<omm id="CCSDS_OMM_VERS" version="2.0">
<header><CREATION_DATE/><ORIGINATOR/></header><body><segment><metadata><OBJECT_NAME>QIANFAN-18</OBJECT_NAME><OBJECT_ID>2024-140T</OBJECT_ID><CENTER_NAME>EARTH</CENTER_NAME><REF_FRAME>TEME</REF_FRAME><TIME_SYSTEM>UTC</TIME_SYSTEM><MEAN_ELEMENT_THEORY>SGP4</MEAN_ELEMENT_THEORY></metadata><data><meanElements><EPOCH>2025-11-17T19:51:39.017088</EPOCH><MEAN_MOTION>13.50972808</MEAN_MOTION><ECCENTRICITY>.0012315</ECCENTRICITY><INCLINATION>88.9738</INCLINATION><RA_OF_ASC_NODE>301.5486</RA_OF_ASC_NODE><ARG_OF_PERICENTER>260.2766</ARG_OF_PERICENTER><MEAN_ANOMALY>99.6994</MEAN_ANOMALY></meanElements><tleParameters><EPHEMERIS_TYPE>0</EPHEMERIS_TYPE><CLASSIFICATION_TYPE>U</CLASSIFICATION_TYPE><NORAD_CAT_ID>60396</NORAD_CAT_ID><ELEMENT_SET_NO>999</ELEMENT_SET_NO><REV_AT_EPOCH>6416</REV_AT_EPOCH><BSTAR>.10377E-3</BSTAR><MEAN_MOTION_DOT>.79E-6</MEAN_MOTION_DOT><MEAN_MOTION_DDOT>0</MEAN_MOTION_DDOT></tleParameters></data></segment></body></omm>

</ndm>
